[{"OBJECT_NAME":"STARLINK-3458","OBJECT_ID":"2022-016AW","EPOCH":"2026-03-09T22:01:55.102368","MEAN_MOTION":15.08840369,"ECCENTRICITY":0.00012287,"INCLINATION":53.2181,"RA_OF_ASC_NODE":308.0494,"ARG_OF_PERICENTER":87.2143,"MEAN_ANOMALY":272.899,"EPHEMERIS_TYPE":0,"CLASSIFICATION_TYPE":"U","NORAD_CAT_ID":51758,"ELEMENT_SET_NO":999,"REV_AT_EPOCH":22488,"BSTAR":9.9118827e-5,"MEAN_MOTION_DOT":1.29e-5,"MEAN_MOTION_DDOT":0},{"OBJECT_NAME":"ELECTRON KICK STAGE R\/B","OBJECT_ID":"2024-114G","EPOCH":"2026-03-09T16:42:35.427168","MEAN_MOTION":15.12630878,"ECCENTRICITY":0.00674954,"INCLINATION":97.9507,"RA_OF_ASC_NODE":118.387,"ARG_OF_PERICENTER":79.3604,"MEAN_ANOMALY":281.5218,"EPHEMERIS_TYPE":0,"CLASSIFICATION_TYPE":"U","NORAD_CAT_ID":60085,"ELEMENT_SET_NO":999,"REV_AT_EPOCH":9434,"BSTAR":0.00053349816,"MEAN_MOTION_DOT":9.787e-5,"MEAN_MOTION_DDOT":0}]
